{
  "type": "FeatureCollection",
  "features": [
    {
      "type": "Feature",
      "properties": {
        "norad_id": 66850,
        "name": "STARLINK-36105",
        "group": "last-30-days",
        "lat": -33.23097492046886,
        "lon": -49.05676500691602,
        "alt_km": 344.7393463903427,
        "timestamp": "2025-12-18T14:52:06.782193+00:00",
        "meta_object_name": "STARLINK-36105",
        "meta_object_id": "2025-281C",
        "meta_epoch": "2025-12-18T06:00:02.999808",
        "meta_mean_motion": 15.7652745,
        "meta_eccentricity": 0.00016909,
        "meta_inclination": 43.0009,
        "meta_ra_of_asc_node": 88.5159,
        "meta_arg_of_pericenter": 259.3629,
        "meta_mean_anomaly": 35.1102,
        "meta_ephemeris_type": 0,
        "meta_classification_type": "U",
        "meta_norad_cat_id": 66850,
        "meta_element_set_no": 999,
        "meta_rev_at_epoch": 228,
        "meta_bstar": -0.0077672858,
        "meta_mean_motion_dot": -0.01137584,
        "meta_mean_motion_ddot": 0,
        "tle_line1": "1 66850U 25281C   25352.25003472 -.01137584  00000+0 -77673-2 0  9995",
        "tle_line2": "2 66850  43.0009  88.5159 0001690 259.3629  35.1102 15.76527450  2287"
      },
      "geometry": {
        "type": "Point",
        "coordinates": [
          -49.05676500691602,
          -33.23097492046886
        ]
      }
    },
    {
      "type": "Feature",
      "properties": {
        "norad_id": 66851,
        "name": "STARLINK-36094",
        "group": "last-30-days",
        "lat": -34.154165016298,
        "lon": -47.012724897352214,
        "alt_km": 345.1878469197254,
        "timestamp": "2025-12-18T14:52:06.782205+00:00",
        "meta_object_name": "STARLINK-36094",
        "meta_object_id": "2025-281D",
        "meta_epoch": "2025-12-18T06:00:02.999808",
        "meta_mean_motion": 15.76470376,
        "meta_eccentricity": 0.00016513,
        "meta_inclination": 43.0008,
        "meta_ra_of_asc_node": 88.5103,
        "meta_arg_of_pericenter": 267.6819,
        "meta_mean_anomaly": 28.8424,
        "meta_ephemeris_type": 0,
        "meta_classification_type": "U",
        "meta_norad_cat_id": 66851,
        "meta_element_set_no": 999,
        "meta_rev_at_epoch": 228,
        "meta_bstar": -0.0081904266,
        "meta_mean_motion_dot": -0.0118988,
        "meta_mean_motion_ddot": 0,
        "tle_line1": "1 66851U 25281D   25352.25003472 -.01189880  00000+0 -81904-2 0  9994",
        "tle_line2": "2 66851  43.0008  88.5103 0001651 267.6819  28.8424 15.76470376  2286"
      },
      "geometry": {
        "type": "Point",
        "coordinates": [
          -47.012724897352214,
          -34.154165016298
        ]
      }
    },
    {
      "type": "Feature",
      "properties": {
        "norad_id": 66852,
        "name": "STARLINK-35992",
        "group": "last-30-days",
        "lat": -35.04766108552685,
        "lon": -44.910852171687594,
        "alt_km": 345.4410748508808,
        "timestamp": "2025-12-18T14:52:06.782216+00:00",
        "meta_object_name": "STARLINK-35992",
        "meta_object_id": "2025-281E",
        "meta_epoch": "2025-12-18T06:00:02.999808",
        "meta_mean_motion": 15.76408103,
        "meta_eccentricity": 0.00015049,
        "meta_inclination": 43.0006,
        "meta_ra_of_asc_node": 88.5055,
        "meta_arg_of_pericenter": 262.074,
        "meta_mean_anomaly": 36.49,
        "meta_ephemeris_type": 0,
        "meta_classification_type": "U",
        "meta_norad_cat_id": 66852,
        "meta_element_set_no": 999,
        "meta_rev_at_epoch": 228,
        "meta_bstar": -0.0083023361,
        "meta_mean_motion_dot": -0.01201241,
        "meta_mean_motion_ddot": 0,
        "tle_line1": "1 66852U 25281E   25352.25003472 -.01201241  00000+0 -83023-2 0  9995",
        "tle_line2": "2 66852  43.0006  88.5055 0001504 262.0740  36.4900 15.76408103  2283"
      },
      "geometry": {
        "type": "Point",
        "coordinates": [
          -44.910852171687594,
          -35.04766108552685
        ]
      }
    },
    {
      "type": "Feature",
      "properties": {
        "norad_id": 66853,
        "name": "STARLINK-35986",
        "group": "last-30-days",
        "lat": -35.9080202033275,
        "lon": -42.75407177621103,
        "alt_km": 346.1262025380447,
        "timestamp": "2025-12-18T14:52:06.782226+00:00",
        "meta_object_name": "STARLINK-35986",
        "meta_object_id": "2025-281F",
        "meta_epoch": "2025-12-18T06:00:02.999808",
        "meta_mean_motion": 15.76263989,
        "meta_eccentricity": 0.00013432,
        "meta_inclination": 43.0006,
        "meta_ra_of_asc_node": 88.4996,
        "meta_arg_of_pericenter": 267.5313,
        "meta_mean_anomaly": 33.2106,
        "meta_ephemeris_type": 0,
        "meta_classification_type": "U",
        "meta_norad_cat_id": 66853,
        "meta_element_set_no": 999,
        "meta_rev_at_epoch": 228,
        "meta_bstar": -0.0086539518,
        "meta_mean_motion_dot": -0.01261038,
        "meta_mean_motion_ddot": 0,
        "tle_line1": "1 66853U 25281F   25352.25003472 -.01261038  00000+0 -86540-2 0  9993",
        "tle_line2": "2 66853  43.0006  88.4996 0001343 267.5313  33.2106 15.76263989  2288"
      },
      "geometry": {
        "type": "Point",
        "coordinates": [
          -42.75407177621103,
          -35.9080202033275
        ]
      }
    },
    {
      "type": "Feature",
      "properties": {
        "norad_id": 66854,
        "name": "STARLINK-36087",
        "group": "last-30-days",
        "lat": -36.722334073079374,
        "lon": -40.568705273754134,
        "alt_km": 346.3614627647994,
        "timestamp": "2025-12-18T14:52:06.782236+00:00",
        "meta_object_name": "STARLINK-36087",
        "meta_object_id": "2025-281G",
        "meta_epoch": "2025-12-18T06:00:02.999808",
        "meta_mean_motion": 15.76132868,
        "meta_eccentricity": 0.00016053,
        "meta_inclination": 43.0007,
        "meta_ra_of_asc_node": 88.4942,
        "meta_arg_of_pericenter": 265.4778,
        "meta_mean_anomaly": 37.39,
        "meta_ephemeris_type": 0,
        "meta_classification_type": "U",
        "meta_norad_cat_id": 66854,
        "meta_element_set_no": 999,
        "meta_rev_at_epoch": 228,
        "meta_bstar": -0.0087615931,
        "meta_mean_motion_dot": -0.01268579,
        "meta_mean_motion_ddot": 0,
        "tle_line1": "1 66854U 25281G   25352.25003472 -.01268579  00000+0 -87616-2 0  9996",
        "tle_line2": "2 66854  43.0007  88.4942 0001605 265.4778  37.3900 15.76132868  2282"
      },
      "geometry": {
        "type": "Point",
        "coordinates": [
          -40.568705273754134,
          -36.722334073079374
        ]
      }
    },
    {
      "type": "Feature",
      "properties": {
        "norad_id": 66855,
        "name": "STARLINK-36090",
        "group": "last-30-days",
        "lat": -37.48751228822027,
        "lon": -38.36174891973082,
        "alt_km": 346.8373927737339,
        "timestamp": "2025-12-18T14:52:06.782248+00:00",
        "meta_object_name": "STARLINK-36090",
        "meta_object_id": "2025-281H",
        "meta_epoch": "2025-12-18T06:00:02.999808",
        "meta_mean_motion": 15.760031,
        "meta_eccentricity": 0.0001164,
        "meta_inclination": 43.0007,
        "meta_ra_of_asc_node": 88.489,
        "meta_arg_of_pericenter": 264.4157,
        "meta_mean_anomaly": 40.5039,
        "meta_ephemeris_type": 0,
        "meta_classification_type": "U",
        "meta_norad_cat_id": 66855,
        "meta_element_set_no": 999,
        "meta_rev_at_epoch": 216,
        "meta_bstar": -0.0082431463,
        "meta_mean_motion_dot": -0.01174465,
        "meta_mean_motion_ddot": 0,
        "tle_line1": "1 66855U 25281H   25352.25003472 -.01174465  00000+0 -82431-2 0  9997",
        "tle_line2": "2 66855  43.0007  88.4890 0001164 264.4157  40.5039 15.76003100  2167"
      },
      "geometry": {
        "type": "Point",
        "coordinates": [
          -38.36174891973082,
          -37.48751228822027
        ]
      }
    },
    {
      "type": "Feature",
      "properties": {
        "norad_id": 66856,
        "name": "STARLINK-36072",
        "group": "last-30-days",
        "lat": -38.210974007369494,
        "lon": -36.109278562476455,
        "alt_km": 346.7766658894907,
        "timestamp": "2025-12-18T14:52:06.782258+00:00",
        "meta_object_name": "STARLINK-36072",
        "meta_object_id": "2025-281J",
        "meta_epoch": "2025-12-18T06:00:02.999808",
        "meta_mean_motion": 15.7579995,
        "meta_eccentricity": 0.00015288,
        "meta_inclination": 43.0008,
        "meta_ra_of_asc_node": 88.4839,
        "meta_arg_of_pericenter": 266.0903,
        "meta_mean_anomaly": 40.9202,
        "meta_ephemeris_type": 0,
        "meta_classification_type": "U",
        "meta_norad_cat_id": 66856,
        "meta_element_set_no": 999,
        "meta_rev_at_epoch": 228,
        "meta_bstar": -0.0069005533,
        "meta_mean_motion_dot": -0.00993111,
        "meta_mean_motion_ddot": 0,
        "tle_line1": "1 66856U 25281J   25352.25003472 -.00993111  00000+0 -69006-2 0  9997",
        "tle_line2": "2 66856  43.0008  88.4839 0001528 266.0903  40.9202 15.75799950  2286"
      },
      "geometry": {
        "type": "Point",
        "coordinates": [
          -36.109278562476455,
          -38.210974007369494
        ]
      }
    }
  ]
}